H1 CPF 01  gfz 2022 04 07 00  5971 terrasarx 
H2 0702601  6201 31698    2022 04 07 00 59 42 2022 04 12 00 00 42   120 1 1  0 0 0
H9
10 0 59677  82782.000000  0   -1145004.747    839792.730   6729866.363
10 0 59677  82902.000000  0   -1340729.449   1715554.985   6524767.891
10 0 59677  83022.000000  0   -1497966.960   2564468.477   6205000.552
10 0 59677  83142.000000  0   -1614572.047   3371013.814   5776151.428
10 0 59677  83262.000000  0   -1689370.980   4120369.606   5245722.093
10 0 59677  83382.000000  0   -1722168.515   4798689.085   4623004.447
10 0 59677  83502.000000  0   -1713734.165   5393363.300   3918923.254
10 0 59677  83622.000000  0   -1665766.631   5893264.032   3145847.918
10 0 59677  83742.000000  0   -1580839.031   6288961.152   2317376.232
10 0 59677  83862.000000  0   -1462324.323   6572910.192   1448093.114
10 0 59677  83982.000000  0   -1314301.622   6739604.107    553308.594
10 0 59677  84102.000000  0   -1141447.237   6785684.965   -351218.407
10 0 59677  84222.000000  0    -948913.097   6710014.809  -1249566.453
10 0 59677  84342.000000  0    -742194.376   6513699.183  -2125943.413
10 0 59677  84462.000000  0    -526991.811   6200062.665  -2964971.775
10 0 59677  84582.000000  0    -309072.185   5774581.922  -3751961.632
10 0 59677  84702.000000  0     -94129.502   5244778.928  -4473168.506
10 0 59677  84822.000000  0     112349.545   4620075.716  -5116031.070
10 0 59677  84942.000000  0     305212.915   3911615.419  -5669384.032
10 0 59677  85062.000000  0     479760.362   3132053.435  -6123643.722
10 0 59677  85182.000000  0     631847.392   2295323.781  -6470963.088
10 0 59677  85302.000000  0     757974.807   1416387.192  -6705355.405
10 0 59677  85422.000000  0     855362.470    510964.865  -6822787.434
10 0 59677  85542.000000  0     922005.843   -404738.822  -6821241.505
10 0 59677  85662.000000  0     956714.754  -1314320.849  -6700745.696
10 0 59677  85782.000000  0     959133.821  -2201465.411  -6463371.632
10 0 59677  85902.000000  0     929745.097  -3050228.159  -6113203.768
10 0 59677  86022.000000  0     869852.098  -3845319.305  -5656278.820
10 0 59677  86142.000000  0     781544.827  -4572378.609  -5100490.702
10 0 59677  86262.000000  0     667647.999  -5218236.315  -4455465.283
10 0 59677  86382.000000  0     531651.571  -5771158.271  -3732405.181
10 0 59678    102.000000  0     377625.126  -6221068.859  -2943903.884
10 0 59678    222.000000  0     210117.927  -6559746.085  -2103732.921
10 0 59678    342.000000  0      34046.720  -6780985.430  -1226604.019
10 0 59678    462.000000  0    -145426.648  -6880725.677   -327909.327
10 0 59678    582.000000  0    -323024.611  -6857132.788    576553.608
10 0 59678    702.000000  0    -493487.066  -6710640.421   1470866.225
10 0 59678    822.000000  0    -651705.043  -6443945.629   2339278.095
10 0 59678    942.000000  0    -792851.264  -6061958.034   3166494.106
10 0 59678   1062.000000  0    -912502.984  -5571702.789   3937952.361
10 0 59678   1182.000000  0   -1006755.816  -4982182.276   4640084.301
10 0 59678   1302.000000  0   -1072325.380  -4304201.490   5260554.768
10 0 59678   1422.000000  0   -1106633.447  -3550160.922   5788478.457
10 0 59678   1542.000000  0   -1107877.921  -2733819.344   6214608.389
10 0 59678   1662.000000  0   -1075083.748  -1870034.494   6531490.587
10 0 59678   1782.000000  0   -1008134.971   -974489.578   6733587.631
10 0 59678   1902.000000  0    -907788.424    -63406.458   6817370.761
10 0 59678   2022.000000  0    -775668.000    846748.657   6781377.490
10 0 59678   2142.000000  0    -614238.191   1739562.324   6626235.932
10 0 59678   2262.000000  0    -426758.031   2598969.428   6354654.430
10 0 59678   2382.000000  0    -217216.537   3409542.110   5971377.179
10 0 59678   2502.000000  0       9748.900   4156768.582   5483106.400
10 0 59678   2622.000000  0     248950.427   4827316.641   4898390.832
10 0 59678   2742.000000  0     494762.832   5409278.750   4227482.671
10 0 59678   2862.000000  0     741248.364   5892391.022   3482160.192
10 0 59678   2982.000000  0     982291.133   6268223.031   2675527.734
10 0 59678   3102.000000  0    1211741.130   6530340.413   1821782.761
10 0 59678   3222.000000  0    1423559.459   6674420.643    935959.956
10 0 59678   3342.000000  0    1611963.907   6698329.663     33659.577
10 0 59678   3462.000000  0    1771570.640   6602153.455   -869235.354
10 0 59678   3582.000000  0    1897527.763   6388185.470  -1756846.652
10 0 59678   3702.000000  0    1985638.187   6060870.770  -2613587.469
10 0 59678   3822.000000  0    2032468.593   5626707.811  -3424442.178
10 0 59678   3942.000000  0    2035441.778   5094110.034  -4175233.466
10 0 59678   4062.000000  0    1992910.034   4473230.836  -4852869.899
10 0 59678   4182.000000  0    1904207.908   3775758.664  -5445569.105
10 0 59678   4302.000000  0    1769684.512   3014688.202  -5943054.488
10 0 59678   4422.000000  0    1590713.957   2204071.497  -6336723.584
10 0 59678   4542.000000  0    1369684.600   1358755.458  -6619784.658
10 0 59678   4662.000000  0    1109968.539    494111.389  -6787363.340
10 0 59678   4782.000000  0     815870.154   -374241.067  -6836578.250
10 0 59678   4902.000000  0     492555.083  -1230710.854  -6766584.217
10 0 59678   5022.000000  0     145961.409  -2060007.916  -6578583.637
10 0 59678   5142.000000  0    -217305.741  -2847408.188  -6275809.086
10 0 59678   5262.000000  0    -590096.595  -3579011.573  -5863475.125
10 0 59678   5382.000000  0    -964852.682  -4241985.450  -5348696.781
10 0 59678   5502.000000  0   -1333754.880  -4824791.480  -4740378.610
10 0 59678   5622.000000  0   -1688882.099  -5317392.564  -4049072.178
10 0 59678   5742.000000  0   -2022377.313  -5711434.472  -3286802.783
10 0 59678   5862.000000  0   -2326617.152  -6000397.953  -2466867.829
10 0 59678   5982.000000  0   -2594381.599  -6179718.188  -1603609.529
10 0 59678   6102.000000  0   -2819019.829  -6246868.316   -712164.441
10 0 59678   6222.000000  0   -2994607.882  -6201402.903    191806.168
10 0 59678   6342.000000  0   -3116093.330  -6044958.941   1092398.471
10 0 59678   6462.000000  0   -3179423.395  -5781215.016   1973754.505
10 0 59678   6582.000000  0   -3181652.990  -5415808.636   2820350.756
10 0 59678   6702.000000  0   -3121029.690  -4956214.286   3617279.476
10 0 59678   6822.000000  0   -2997053.572  -4411586.080   4350517.182
10 0 59678   6942.000000  0   -2810511.155  -3792568.644   5007174.765
10 0 59678   7062.000000  0   -2563482.882  -3111081.071   5575724.468
10 0 59678   7182.000000  0   -2259322.784  -2380079.842   6046199.439
10 0 59678   7302.000000  0   -1902612.464  -1613307.541   6410363.703
10 0 59678   7422.000000  0   -1499089.787   -825030.602   6661852.047
10 0 59678   7542.000000  0   -1055553.859    -29770.055   6796274.146
10 0 59678   7662.000000  0    -579750.327    757965.184   6811284.694
10 0 59678   7782.000000  0     -80236.360   1523942.093   6706622.778
10 0 59678   7902.000000  0     433773.148   2254460.535   6484116.354
10 0 59678   8022.000000  0     952575.244   2936598.180   6147651.783
10 0 59678   8142.000000  0    1466160.970   3558439.536   5703110.301
10 0 59678   8262.000000  0    1964407.417   4109287.353   5158271.203
10 0 59678   8382.000000  0    2437277.451   4579852.053   4522682.072
10 0 59678   8502.000000  0    2875023.067   4962414.550   3807495.740
10 0 59678   8622.000000  0    3268386.471   5250958.738   3025278.888
10 0 59678   8742.000000  0    3608798.333   5441275.433   2189793.456
10 0 59678   8862.000000  0    3888565.771   5531027.909   1315749.006
10 0 59678   8982.000000  0    4101042.917   5519779.555    418539.172
10 0 59678   9102.000000  0    4240783.298   5408984.011   -486038.334
10 0 59678   9222.000000  0    4303668.474   5201934.679  -1382068.170
10 0 59678   9342.000000  0    4287010.639   4903678.806  -2253805.179
10 0 59678   9462.000000  0    4189625.613   4520896.888  -3085958.039
10 0 59678   9582.000000  0    4011874.427   4061750.794  -3863962.496
10 0 59678   9702.000000  0    3755673.223   3535704.358  -4574236.651
10 0 59678   9822.000000  0    3424473.381   2953323.034  -5204414.979
10 0 59678   9942.000000  0    3023210.768   2326056.566  -5743557.672
10 0 59678  10062.000000  0    2558226.709   1666010.283  -6182331.214
10 0 59678  10182.000000  0    2037162.871    985709.834  -6513158.780
10 0 59678  10302.000000  0    1468833.017    297865.031  -6730338.525
10 0 59678  10422.000000  0     863074.656   -384863.316  -6830132.836
10 0 59678  10542.000000  0     230579.497  -1050092.244  -6810826.182
10 0 59678  10662.000000  0    -417291.372  -1685935.394  -6672749.437
10 0 59678  10782.000000  0   -1068705.812  -2281209.173  -6418275.380
10 0 59678  10902.000000  0   -1711571.872  -2825626.241  -6051783.261
10 0 59678  11022.000000  0   -2333756.982  -3309971.570  -5579590.725
10 0 59678  11142.000000  0   -2923312.930  -3726259.178  -5009856.487
10 0 59678  11262.000000  0   -3468705.059  -4067868.370  -4352451.490
10 0 59678  11382.000000  0   -3959039.381  -4329654.586  -3618797.876
10 0 59678  11502.000000  0   -4384283.084  -4508033.025  -2821679.446
10 0 59678  11622.000000  0   -4735474.409  -4601032.960  -1975024.400
10 0 59678  11742.000000  0   -5004916.089  -4608320.359  -1093663.837
10 0 59678  11862.000000  0   -5186347.332  -4531188.037   -193070.192
10 0 59678  11982.000000  0   -5275089.965  -4372513.325    710919.453
10 0 59678  12102.000000  0   -5268163.947  -4136683.104   1602390.493
10 0 59678  12222.000000  0   -5164368.137  -3829487.049   2465640.774
10 0 59678  12342.000000  0   -4964324.782  -3457982.545   3285465.828
10 0 59678  12462.000000  0   -4670487.036  -3030335.472   4047433.590
10 0 59678  12582.000000  0   -4287109.075  -2555640.280   4738143.811
10 0 59678  12702.000000  0   -3820179.362  -2043724.148   5345464.441
10 0 59678  12822.000000  0   -3277321.604  -1504941.964   5858742.152
99
